KUIPER-00061            
1 64521U 25134X   25197.43074043  .00008645  00000+0  25922-3 0  9997
2 64521  51.8732 220.2205 0005192 187.7955 172.2951 15.35275361  4311
KUIPER-00062            
1 64522U 25134Y   25197.10043322  .00016393  00000+0  47632-3 0  9999
2 64522  51.8742 221.7586 0004644 174.1610 185.9431 15.35598548  4263
KUIPER-00063            
1 64523U 25134Z   25197.22300246 -.00004466  00000+0 -11398-3 0  9994
2 64523  51.8735 221.0801 0002260 153.1309 206.9794 15.36196236  4280
KUIPER-00064            
1 64524U 25134AA  25197.08495922  .00021873  00000+0  60836-3 0  9995
2 64524  51.8759 221.6545 0001558 103.7263 256.3896 15.36768775  4563
KUIPER-00065            
1 64525U 25134AB  25197.44226654  .00014093  00000+0  42453-3 0  9991
2 64525  51.8696 220.2903 0008258 193.1098 166.9674 15.34566981  4552
KUIPER-00066            
1 64526U 25134AC  25197.21871720  .00019982  00000+0  56166-3 0  9995
2 64526  51.8751 221.0530 0001880 129.8791 230.2361 15.36498991  4285
